{
  "type": "FeatureCollection",
  "features": [
    {
      "type": "Feature",
      "properties": {
        "norad_id": 66975,
        "name": "STARLINK-35777",
        "group": "last-30-days",
        "lat": -36.7542853288873,
        "lon": -41.545063090219756,
        "alt_km": 385.686123272214,
        "timestamp": "2025-12-26T04:40:04.513412+00:00",
        "meta_object_name": "STARLINK-35777",
        "meta_object_id": "2025-288S",
        "meta_epoch": "2025-12-25T22:00:01.999584",
        "meta_mean_motion": 15.62700404,
        "meta_eccentricity": 0.00014018,
        "meta_inclination": 43.0001,
        "meta_ra_of_asc_node": 86.8372,
        "meta_arg_of_pericenter": 284.7118,
        "meta_mean_anomaly": 192.4999,
        "meta_ephemeris_type": 0,
        "meta_classification_type": "U",
        "meta_norad_cat_id": 66975,
        "meta_element_set_no": 999,
        "meta_rev_at_epoch": 394,
        "meta_bstar": -0.025004821,
        "meta_mean_motion_dot": -0.02023346,
        "meta_mean_motion_ddot": 0,
        "tle_line1": "1 66975U 25288S   25359.91668981 -.02023346  00000+0 -25005-1 0  9994",
        "tle_line2": "2 66975  43.0001  86.8372 0001401 284.7118 192.4999 15.62700404  3942"
      },
      "geometry": {
        "type": "Point",
        "coordinates": [
          -41.545063090219756,
          -36.7542853288873
        ]
      }
    },
    {
      "type": "Feature",
      "properties": {
        "norad_id": 66976,
        "name": "STARLINK-35772",
        "group": "last-30-days",
        "lat": 39.51468294450382,
        "lon": 148.76160736027813,
        "alt_km": 438.7394791798897,
        "timestamp": "2025-12-26T04:40:04.513426+00:00",
        "meta_object_name": "STARLINK-35772",
        "meta_object_id": "2025-288T",
        "meta_epoch": "2025-12-25T22:00:01.999584",
        "meta_mean_motion": 15.4063909,
        "meta_eccentricity": 0.0001263,
        "meta_inclination": 43.0003,
        "meta_ra_of_asc_node": 88.1023,
        "meta_arg_of_pericenter": 257.7901,
        "meta_mean_anomaly": 68.5539,
        "meta_ephemeris_type": 0,
        "meta_classification_type": "U",
        "meta_norad_cat_id": 66976,
        "meta_element_set_no": 999,
        "meta_rev_at_epoch": 394,
        "meta_bstar": 0.00059998962,
        "meta_mean_motion_dot": 0.0002479,
        "meta_mean_motion_ddot": 0,
        "tle_line1": "1 66976U 25288T   25359.91668981  .00024790  00000+0  59999-3 0  9996",
        "tle_line2": "2 66976  43.0003  88.1023 0001263 257.7901  68.5539 15.40639090  3940"
      },
      "geometry": {
        "type": "Point",
        "coordinates": [
          148.76160736027813,
          39.51468294450382
        ]
      }
    },
    {
      "type": "Feature",
      "properties": {
        "norad_id": 66977,
        "name": "STARLINK-35770",
        "group": "last-30-days",
        "lat": -37.51469507169565,
        "lon": -39.34492357630498,
        "alt_km": 385.7573813708277,
        "timestamp": "2025-12-26T04:40:04.513436+00:00",
        "meta_object_name": "STARLINK-35770",
        "meta_object_id": "2025-288U",
        "meta_epoch": "2025-12-25T22:00:01.999584",
        "meta_mean_motion": 15.62699905,
        "meta_eccentricity": 0.00013037,
        "meta_inclination": 43.0002,
        "meta_ra_of_asc_node": 86.8332,
        "meta_arg_of_pericenter": 285.6929,
        "meta_mean_anomaly": 193.435,
        "meta_ephemeris_type": 0,
        "meta_classification_type": "U",
        "meta_norad_cat_id": 66977,
        "meta_element_set_no": 999,
        "meta_rev_at_epoch": 394,
        "meta_bstar": -0.024983243,
        "meta_mean_motion_dot": -0.02021708,
        "meta_mean_motion_ddot": 0,
        "tle_line1": "1 66977U 25288U   25359.91668981 -.02021708  00000+0 -24983-1 0  9990",
        "tle_line2": "2 66977  43.0002  86.8332 0001303 285.6929 193.4350 15.62699905  3947"
      },
      "geometry": {
        "type": "Point",
        "coordinates": [
          -39.34492357630498,
          -37.51469507169565
        ]
      }
    },
    {
      "type": "Feature",
      "properties": {
        "norad_id": 66978,
        "name": "STARLINK-35787",
        "group": "last-30-days",
        "lat": -39.5371016485763,
        "lon": -32.486914395631416,
        "alt_km": 385.80581517417795,
        "timestamp": "2025-12-26T04:40:04.513446+00:00",
        "meta_object_name": "STARLINK-35787",
        "meta_object_id": "2025-288V",
        "meta_epoch": "2025-12-25T22:00:01.999584",
        "meta_mean_motion": 15.62698856,
        "meta_eccentricity": 0.00012898,
        "meta_inclination": 43.0004,
        "meta_ra_of_asc_node": 86.8182,
        "meta_arg_of_pericenter": 287.2505,
        "meta_mean_anomaly": 197.6279,
        "meta_ephemeris_type": 0,
        "meta_classification_type": "U",
        "meta_norad_cat_id": 66978,
        "meta_element_set_no": 999,
        "meta_rev_at_epoch": 394,
        "meta_bstar": -0.024958314,
        "meta_mean_motion_dot": -0.02019857,
        "meta_mean_motion_ddot": 0,
        "tle_line1": "1 66978U 25288V   25359.91668981 -.02019857  00000+0 -24958-1 0  9995",
        "tle_line2": "2 66978  43.0004  86.8182 0001289 287.2505 197.6279 15.62698856  3944"
      },
      "geometry": {
        "type": "Point",
        "coordinates": [
          -32.486914395631416,
          -39.5371016485763
        ]
      }
    },
    {
      "type": "Feature",
      "properties": {
        "norad_id": 66979,
        "name": "STARLINK-36107",
        "group": "last-30-days",
        "lat": -40.11941321762999,
        "lon": -30.11398934392589,
        "alt_km": 385.7878662623798,
        "timestamp": "2025-12-26T04:40:04.513458+00:00",
        "meta_object_name": "STARLINK-36107",
        "meta_object_id": "2025-288W",
        "meta_epoch": "2025-12-25T22:00:01.999584",
        "meta_mean_motion": 15.6269863,
        "meta_eccentricity": 0.00012953,
        "meta_inclination": 43.0006,
        "meta_ra_of_asc_node": 86.814,
        "meta_arg_of_pericenter": 285.8542,
        "meta_mean_anomaly": 200.9427,
        "meta_ephemeris_type": 0,
        "meta_classification_type": "U",
        "meta_norad_cat_id": 66979,
        "meta_element_set_no": 999,
        "meta_rev_at_epoch": 394,
        "meta_bstar": -0.024962036,
        "meta_mean_motion_dot": -0.02020109,
        "meta_mean_motion_ddot": 0,
        "tle_line1": "1 66979U 25288W   25359.91668981 -.02020109  00000+0 -24962-1 0  9993",
        "tle_line2": "2 66979  43.0006  86.8140 0001295 285.8542 200.9427 15.62698630  3946"
      },
      "geometry": {
        "type": "Point",
        "coordinates": [
          -30.11398934392589,
          -40.11941321762999
        ]
      }
    },
    {
      "type": "Feature",
      "properties": {
        "norad_id": 66980,
        "name": "STARLINK-36086",
        "group": "last-30-days",
        "lat": -40.65098348313159,
        "lon": -27.706968053953037,
        "alt_km": 385.762929821758,
        "timestamp": "2025-12-26T04:40:04.513472+00:00",
        "meta_object_name": "STARLINK-36086",
        "meta_object_id": "2025-288X",
        "meta_epoch": "2025-12-25T22:00:01.999584",
        "meta_mean_motion": 15.62693283,
        "meta_eccentricity": 0.00013833,
        "meta_inclination": 43.0004,
        "meta_ra_of_asc_node": 86.8091,
        "meta_arg_of_pericenter": 287.4669,
        "meta_mean_anomaly": 201.2487,
        "meta_ephemeris_type": 0,
        "meta_classification_type": "U",
        "meta_norad_cat_id": 66980,
        "meta_element_set_no": 999,
        "meta_rev_at_epoch": 394,
        "meta_bstar": -0.024861032,
        "meta_mean_motion_dot": -0.02012644,
        "meta_mean_motion_ddot": 0,
        "tle_line1": "1 66980U 25288X   25359.91668981 -.02012644  00000+0 -24861-1 0  9998",
        "tle_line2": "2 66980  43.0004  86.8091 0001383 287.4669 201.2487 15.62693283  3946"
      },
      "geometry": {
        "type": "Point",
        "coordinates": [
          -27.706968053953037,
          -40.65098348313159
        ]
      }
    },
    {
      "type": "Feature",
      "properties": {
        "norad_id": 66981,
        "name": "STARLINK-36142",
        "group": "last-30-days",
        "lat": -41.13253750529113,
        "lon": -25.257658806654554,
        "alt_km": 385.7664326868835,
        "timestamp": "2025-12-26T04:40:04.513484+00:00",
        "meta_object_name": "STARLINK-36142",
        "meta_object_id": "2025-288Y",
        "meta_epoch": "2025-12-25T22:00:01.999584",
        "meta_mean_motion": 15.62697883,
        "meta_eccentricity": 0.00013559,
        "meta_inclination": 43.0002,
        "meta_ra_of_asc_node": 86.8045,
        "meta_arg_of_pericenter": 286.9049,
        "meta_mean_anomaly": 203.7266,
        "meta_ephemeris_type": 0,
        "meta_classification_type": "U",
        "meta_norad_cat_id": 66981,
        "meta_element_set_no": 999,
        "meta_rev_at_epoch": 394,
        "meta_bstar": -0.024937795,
        "meta_mean_motion_dot": -0.02018386,
        "meta_mean_motion_ddot": 0,
        "tle_line1": "1 66981U 25288Y   25359.91668981 -.02018386  00000+0 -24938-1 0  9993",
        "tle_line2": "2 66981  43.0002  86.8045 0001355 286.9049 203.7266 15.62697883  3941"
      },
      "geometry": {
        "type": "Point",
        "coordinates": [
          -25.257658806654554,
          -41.13253750529113
        ]
      }
    }
  ]
}